INTELSAT 21 (IS-21)     
1 38749U 12045A   26169.81209734 -.00000291  00000+0  00000+0 0  9992
2 38749   0.0171  10.5508 0001413  86.2650  44.5794  1.00272192 50548
ASTRA 2F                
1 38778U 12051A   26169.85286625  .00000143  00000+0  00000+0 0  9994
2 38778   0.0583 255.6364 0001576 281.4925  65.1559  1.00270853 41150
GSAT-10                 
1 38779U 12051B   26169.84004942 -.00000171  00000+0  00000+0 0  9996
2 38779   0.0758 261.8658 0007761 186.2753 204.3585  1.00272149 50115
INTELSAT 23 (IS-23)     
1 38867U 12057A   26169.81313735 -.00000291  00000+0  00000+0 0  9993
2 38867   0.0106 320.0997 0000157  68.4316 118.2272  1.00267446 49974
BEIDOU-2 G6             
1 38953U 12059A   26169.84022277 -.00000183  00000+0  00000+0 0  9992
2 38953   4.4263  73.5051 0009615 324.4090 255.6782  1.00271655 49929
LUCH-5B                 
1 38977U 12061A   26169.39261786 -.00000148  00000+0  00000+0 0  9992
2 38977  10.4882  49.8703 0002494 151.0369 190.7943  1.00272039 49611
YAMAL 300K              
1 38978U 12061B   26169.57468227  .00000065  00000+0  00000+0 0  9999
2 38978   0.0178 297.3747 0001199 324.7142  34.5610  1.00273196 49646
STAR ONE C3             
1 38991U 12062A   26169.52355987  .00000000  00000+0  00000+0 0  9997
2 38991   0.0196 359.0348 0002374 102.4009 278.8283  1.00268289 49773
EUTELSAT 21B            
1 38992U 12062B   26169.84735725  .00000124  00000+0  00000+0 0  9992
2 38992   0.0656 348.0692 0003099  88.1650 157.5260  1.00269550 49840
ECHOSTAR 16             
1 39008U 12065A   26169.81140399 -.00000288  00000+0  00000+0 0  9990
2 39008   0.0174  23.1620 0002144  64.8226  49.6629  1.00271066 49661
ZHONGXING-12            
1 39017U 12067A   26169.84091610 -.00000213  00000+0  00000+0 0  9994
2 39017   0.0430  89.6337 0002752 349.1910 218.4729  1.00271355 49525
EUTELSAT 70B            
1 39020U 12069A   26169.78221904 -.00000050  00000+0  00000+0 0  9993
2 39020   0.0664  18.9612 0003902  60.9280 179.2135  1.00271773 49524
YAMAL 402               
1 39022U 12070A   26169.89515162  .00000079  00000+0  00000+0 0  9991
2 39022   1.2705  84.1390 0003723   3.4927 196.6446  1.00272114 49410
SKYNET 5D               
1 39034U 12075A   26169.86343351  .00000093  00000+0  00000+0 0  9991
2 39034   0.0658 354.5170 0003566 101.1730 175.0066  1.00271137 49176
MEXSAT 3                
1 39035U 12075B   26169.65827770  .00000000  00000+0  00000+0 0  9999
2 39035   0.0184  17.3421 0001011  44.6796 327.0659  1.00273690  7065
TDRS 11                 
1 39070U 13004A   26169.78904390  .00000071  00000+0  00000+0 0  9997
2 39070   3.5229  31.2842 0005388  21.1833 324.1854  1.00270056 46709
AMAZONAS 3              
1 39078U 13006A   26169.81149066 -.00000289  00000+0  00000+0 0  9994
2 39078   0.0401 198.2956 0001985 293.2654   6.6261  1.00271877 44932
AZERSPACE 1             
1 39079U 13006B   26169.88510749  .00000127  00000+0  00000+0 0  9992
2 39079   0.0172  53.9103 0001354  63.6105 154.2075  1.00270950 48825
SBIRS GEO-2 (USA 241)   
1 39120U 13011A   26169.52858656 -.00000294  00000+0  00000+0 0  9994
2 39120   4.4921  52.5106 0002124  28.0198 326.7276  1.00271683 48545
EUTELSAT 117 WEST A     
1 39122U 13012A   26169.65784434 -.00000019  00000+0  00000+0 0  9998
2 39122   0.0186  28.5171 0002717  58.6529 299.7384  1.00271608 48447
ANIK G1                 
1 39127U 13014A   26169.65975102 -.00000080  00000+0  00000+0 0  9997
2 39127   0.0434 271.4049 0001547 169.7046 315.9749  1.00271430 48268
ZHONGXING-11            
1 39157U 13020A   26169.74408064 -.00000296  00000+0  00000+0 0  9994
2 39157   0.0369 293.7123 0002120 142.2172 196.7856  1.00266804 47916
EUTELSAT 7B             
1 39163U 13022A   26169.82496024  .00000041  00000+0  00000+0 0  9992
2 39163   0.0642 354.8348 0004463  40.3148 175.8956  1.00269758 47963
WGS F5 (USA 243)        
1 39168U 13024A   26169.81322402  .00000000  00000+0  00000+0 0  9991
2 39168   0.0188   4.4404 0000336 328.5832 174.2786  1.00267894 47198
SES-6                   
1 39172U 13026A   26169.81556402 -.00000268  00000+0  00000+0 0  9994
2 39172   0.0210 328.8117 0002622 143.1233  48.2040  1.00270869 47749
IRNSS-1A                
1 39199U 13034A   26169.89544830  .00000051  00000+0  00000+0 0  9991
2 39199  35.7241  63.8469 0017589 183.2529  37.3106  1.00275723 47380
MUOS-2                  
1 39206U 13036A   26169.50127903 -.00000021  00000+0  00000+0 0  9996
2 39206   4.9976  45.5318 0051115 177.4355  36.2008  1.00273411 47209
ALPHASAT                
1 39215U 13038A   26169.85035836  .00000126  00000+0  00000+0 0  9994
2 39215   2.9987   1.3603 0001713  87.8821 148.8248  1.00271416 44034
INSAT-3D                
1 39216U 13038B   26169.77795051 -.00000346  00000+0  00000+0 0  9993
2 39216   1.9311  82.5207 0000585 321.2664 272.7790  1.00268526 47098
WGS F6 (USA 244)        
1 39222U 13041A   26169.58291565  .00000083  00000+0  00000+0 0  9991
2 39222   0.0180   8.6613 0000126 330.0968   2.7101  1.00271435 46072
ES'HAIL 1               
1 39233U 13044A   26169.85065838  .00000137  00000+0  00000+0 0  9998
2 39233   0.0468 352.5210 0001891  87.0354 159.2419  1.00269206 46641
GSAT-7                  
1 39234U 13044B   26169.79995847 -.00000083  00000+0  00000+0 0  9995
2 39234   0.0881  93.2951 0003061 190.9996 344.6828  1.00270651 45277
