OBJECT_NAME,OBJECT_ID,EPOCH,MEAN_MOTION,ECCENTRICITY,INCLINATION,RA_OF_ASC_NODE,ARG_OF_PERICENTER,MEAN_ANOMALY,EPHEMERIS_TYPE,CLASSIFICATION_TYPE,NORAD_CAT_ID,ELEMENT_SET_NO,REV_AT_EPOCH,BSTAR,MEAN_MOTION_DOT,MEAN_MOTION_DDOT
INTELSAT 21 (IS-21),2012-045A,2026-06-18T19:29:25.210176,1.00272192,.0001413,0.0171,10.5508,86.2650,44.5794,0,U,38749,999,5054,0,-.291E-5,0
ASTRA 2F,2012-051A,2026-06-18T20:28:07.644000,1.00270853,.0001576,0.0583,255.6364,281.4925,65.1559,0,U,38778,999,4115,0,.143E-5,0
GSAT-10,2012-051B,2026-06-18T20:09:40.269888,1.00272149,.0007761,0.0758,261.8658,186.2753,204.3585,0,U,38779,999,5011,0,-.171E-5,0
INTELSAT 23 (IS-23),2012-057A,2026-06-18T19:30:55.067040,1.00267446,.0000157,0.0106,320.0997,68.4316,118.2272,0,U,38867,999,4997,0,-.291E-5,0
BEIDOU-2 G6,2012-059A,2026-06-18T20:09:55.247328,1.00271655,.0009615,4.4263,73.5051,324.4090,255.6782,0,U,38953,999,4992,0,-.183E-5,0
LUCH-5B,2012-061A,2026-06-18T09:25:22.183104,1.00272039,.0002494,10.4882,49.8703,151.0369,190.7943,0,U,38977,999,4961,0,-.148E-5,0
YAMAL 300K,2012-061B,2026-06-18T13:47:32.548128,1.00273196,.0001199,0.0178,297.3747,324.7142,34.5610,0,U,38978,999,4964,0,.65E-6,0
STAR ONE C3,2012-062A,2026-06-18T12:33:55.572768,1.00268289,.0002374,0.0196,359.0348,102.4009,278.8283,0,U,38991,999,4977,0,0,0
EUTELSAT 21B,2012-062B,2026-06-18T20:20:11.666400,1.00269550,.0003099,0.0656,348.0692,88.1650,157.5260,0,U,38992,999,4984,0,.124E-5,0
ECHOSTAR 16,2012-065A,2026-06-18T19:28:25.304736,1.00271066,.0002144,0.0174,23.1620,64.8226,49.6629,0,U,39008,999,4966,0,-.288E-5,0
ZHONGXING-12,2012-067A,2026-06-18T20:10:55.151040,1.00271355,.0002752,0.0430,89.6337,349.1910,218.4729,0,U,39017,999,4952,0,-.213E-5,0
EUTELSAT 70B,2012-069A,2026-06-18T18:46:23.725056,1.00271773,.0003902,0.0664,18.9612,60.9280,179.2135,0,U,39020,999,4952,0,-.5E-6,0
YAMAL 402,2012-070A,2026-06-18T21:29:01.099968,1.00272114,.0003723,1.2705,84.1390,3.4927,196.6446,0,U,39022,999,4941,0,.79E-6,0
SKYNET 5D,2012-075A,2026-06-18T20:43:20.655264,1.00271137,.0003566,0.0658,354.5170,101.1730,175.0066,0,U,39034,999,4917,0,.93E-6,0
MEXSAT 3,2012-075B,2026-06-18T15:47:55.193280,1.00273690,.0001011,0.0184,17.3421,44.6796,327.0659,0,U,39035,999,706,0,0,0
TDRS 11,2013-004A,2026-06-18T18:56:13.392960,1.00270056,.0005388,3.5229,31.2842,21.1833,324.1854,0,U,39070,999,4670,0,.71E-6,0
AMAZONAS 3,2013-006A,2026-06-18T19:28:32.793024,1.00271877,.0001985,0.0401,198.2956,293.2654,6.6261,0,U,39078,999,4493,0,-.289E-5,0
AZERSPACE 1,2013-006B,2026-06-18T21:14:33.287136,1.00270950,.0001354,0.0172,53.9103,63.6105,154.2075,0,U,39079,999,4882,0,.127E-5,0
SBIRS GEO-2 (USA 241),2013-011A,2026-06-18T12:41:09.878784,1.00271683,.0002124,4.4921,52.5106,28.0198,326.7276,0,U,39120,999,4854,0,-.294E-5,0
EUTELSAT 117 WEST A,2013-012A,2026-06-18T15:47:17.750976,1.00271608,.0002717,0.0186,28.5171,58.6529,299.7384,0,U,39122,999,4844,0,-.19E-6,0
ANIK G1,2013-014A,2026-06-18T15:50:02.488128,1.00271430,.0001547,0.0434,271.4049,169.7046,315.9749,0,U,39127,999,4826,0,-.8E-6,0
ZHONGXING-11,2013-020A,2026-06-18T17:51:28.567296,1.00266804,.000212,0.0369,293.7123,142.2172,196.7856,0,U,39157,999,4791,0,-.296E-5,0
EUTELSAT 7B,2013-022A,2026-06-18T19:47:56.564736,1.00269758,.0004463,0.0642,354.8348,40.3148,175.8956,0,U,39163,999,4796,0,.41E-6,0
WGS F5 (USA 243),2013-024A,2026-06-18T19:31:02.555328,1.00267894,.0000336,0.0188,4.4404,328.5832,174.2786,0,U,39168,999,4719,0,0,0
SES-6,2013-026A,2026-06-18T19:34:24.731328,1.00270869,.0002622,0.0210,328.8117,143.1233,48.2040,0,U,39172,999,4774,0,-.268E-5,0
IRNSS-1A,2013-034A,2026-06-18T21:29:26.733120,1.00275723,.0017589,35.7241,63.8469,183.2529,37.3106,0,U,39199,999,4738,0,.51E-6,0
MUOS-2,2013-036A,2026-06-18T12:01:50.508192,1.00273411,.0051115,4.9976,45.5318,177.4355,36.2008,0,U,39206,999,4720,0,-.21E-6,0
ALPHASAT,2013-038A,2026-06-18T20:24:30.962304,1.00271416,.0001713,2.9987,1.3603,87.8821,148.8248,0,U,39215,999,4403,0,.126E-5,0
INSAT-3D,2013-038B,2026-06-18T18:40:14.924064,1.00268526,.0000585,1.9311,82.5207,321.2664,272.7790,0,U,39216,999,4709,0,-.346E-5,0
WGS F6 (USA 244),2013-041A,2026-06-18T13:59:23.912160,1.00271435,.0000126,0.0180,8.6613,330.0968,2.7101,0,U,39222,999,4607,0,.83E-6,0
ES'HAIL 1,2013-044A,2026-06-18T20:24:56.884032,1.00269206,.0001891,0.0468,352.5210,87.0354,159.2419,0,U,39233,999,4664,0,.137E-5,0
GSAT-7,2013-044B,2026-06-18T19:11:56.411808,1.00270651,.0003061,0.0881,93.2951,190.9996,344.6828,0,U,39234,999,4527,0,-.83E-6,0
